LEMUR-2-GREENBERG       
1 42837U 17042N   26068.46200528  .00019778  00000+0  72539-3 0  9997
2 42837  97.3781 249.8007 0009157   4.0119 356.1192 15.27971352473146
STARLINK-35650          
1 66573U 25268S   26068.14584406  .00021397  00000+0  78547-3 0  9999
2 66573  43.0029 350.3909 0001484 294.8754  65.1944 15.27552243 17870
